{
  "type": "FeatureCollection",
  "features": [
    {
      "type": "Feature",
      "geometry": {
        "coordinates": [
          [
            [
              20.941776,
              64.75727
            ],
            [
              20.941604,
              64.756914
            ],
            [
              20.941958,
              64.756886
            ],
            [
              20.941991,
              64.75706
            ],
            [
              20.941776,
              64.75727
            ]
          ]
        ],
        "type": "Polygon"
      },
      "properties": {},
      "id": "k4ODU"
    },
    {
      "type": "Feature",
      "geometry": {
        "coordinates": [
          [
            [
              20.902364,
              64.755683
            ],
            [
              20.902283,
              64.755497
            ],
            [
              20.902466,
              64.755426
            ],
            [
              20.902728,
              64.755667
            ],
            [
              20.902364,
              64.755683
            ]
          ]
        ],
        "type": "Polygon"
      },
      "properties": {},
      "id": "IyMTc"
    },
    {
      "type": "Feature",
      "geometry": {
        "coordinates": [
          [
            [
              20.953127,
              64.748617
            ],
            [
              20.953084,
              64.748461
            ],
            [
              20.953728,
              64.748429
            ],
            [
              20.953771,
              64.748571
            ],
            [
              20.953127,
              64.748617
            ]
          ]
        ],
        "type": "Polygon"
      },
      "properties": {},
      "id": "Y1NTE"
    },
    {
      "type": "Feature",
      "geometry": {
        "coordinates": [
          [
            [
              20.953395,
              64.751496
            ],
            [
              20.953352,
              64.75134
            ],
            [
              20.953964,
              64.751299
            ],
            [
              20.954018,
              64.751464
            ],
            [
              20.953395,
              64.751496
            ]
          ]
        ],
        "type": "Polygon"
      },
      "properties": {},
      "id": "EwODU"
    }
  ]
}