{
  "type": "FeatureCollection",
  "features": [
    {
      "type": "Feature",
      "geometry": {
        "coordinates": [
          [
            [
              17.978246,
              59.358899
            ],
            [
              17.978096,
              59.358779
            ],
            [
              17.97859,
              59.35856
            ],
            [
              17.978654,
              59.35868
            ],
            [
              17.978246,
              59.358899
            ]
          ]
        ],
        "type": "Polygon"
      },
      "properties": {},
      "id": "cyMDM"
    },
    {
      "type": "Feature",
      "geometry": {
        "coordinates": [
          [
            [
              17.976615,
              59.358297
            ],
            [
              17.976229,
              59.35809
            ],
            [
              17.975757,
              59.358265
            ],
            [
              17.976122,
              59.358516
            ],
            [
              17.976615,
              59.358297
            ]
          ]
        ],
        "type": "Polygon"
      },
      "properties": {},
      "id": "A3NzM"
    },
    {
      "type": "Feature",
      "geometry": {
        "coordinates": [
          [
            [
              17.966166,
              59.368341
            ],
            [
              17.966058,
              59.368374
            ],
            [
              17.965897,
              59.368292
            ],
            [
              17.965919,
              59.368155
            ],
            [
              17.966166,
              59.368341
            ]
          ]
        ],
        "type": "Polygon"
      },
      "properties": {},
      "id": "U1NDQ"
    },
    {
      "type": "Feature",
      "geometry": {
        "coordinates": [
          [
            [
              18.000219,
              59.358721
            ],
            [
              17.999243,
              59.358719
            ],
            [
              17.999248,
              59.358489
            ],
            [
              17.999935,
              59.358552
            ],
            [
              18.000219,
              59.358721
            ]
          ]
        ],
        "type": "Polygon"
      },
      "properties": {},
      "id": "g3NTI"
    },
    {
      "type": "Feature",
      "geometry": {
        "coordinates": [
          [
            [
              17.998341,
              59.370855
            ],
            [
              17.998255,
              59.370686
            ],
            [
              17.998266,
              59.370549
            ],
            [
              17.99817,
              59.37056
            ],
            [
              17.998213,
              59.370855
            ],
            [
              17.998341,
              59.370855
            ]
          ]
        ],
        "type": "Polygon"
      },
      "properties": {},
      "id": "E0NDk"
    },
    {
      "type": "Feature",
      "geometry": {
        "coordinates": [
          [
            [
              18.008244,
              59.374064
            ],
            [
              18.00833,
              59.373933
            ],
            [
              18.008995,
              59.374086
            ],
            [
              18.008909,
              59.374184
            ],
            [
              18.008244,
              59.374064
            ]
          ]
        ],
        "type": "Polygon"
      },
      "properties": {},
      "id": "M0NTQ"
    },
    {
      "type": "Feature",
      "geometry": {
        "coordinates": [
          [
            [
              18.020861,
              59.350619
            ],
            [
              18.020518,
              59.350619
            ],
            [
              18.020089,
              59.350701
            ],
            [
              18.020335,
              59.350964
            ],
            [
              18.020861,
              59.350619
            ]
          ]
        ],
        "type": "Polygon"
      },
      "properties": {},
      "id": "gyMDI"
    }
  ]
}